STARLINK-36481          
1 67307U 26002C   26185.24668544  .00036964  00000+0  13454-2 0  9990
2 67307  42.9988  27.1163 0000956 267.7307  92.3435 15.27596488 28907
STARLINK-36449          
1 67308U 26002D   26185.56590560  .00037030  00000+0  13468-2 0  9998
2 67308  42.9989  25.2097 0000940 257.1021 102.9726 15.27620266 29019
STARLINK-36482          
1 67309U 26002E   26184.97357444  .00031861  00000+0  11613-2 0  9991
2 67309  43.0008  28.5042 0001378 267.4950  92.5744 15.27608388 28868
STARLINK-36491          
1 67310U 26002F   26185.58388095  .00017016  00000+0  62620-3 0  9998
2 67310  43.0001  25.3524 0001342 283.5804  76.4899 15.27591755 28952
STARLINK-36495          
1 67311U 26002G   26185.61715393  .00035489  00000+0  12912-2 0  9990
2 67311  43.0026  24.7325 0001461 241.2568 118.8137 15.27625687 29120
STARLINK-36485          
1 67312U 26002H   26185.53762947  .00027033  00000+0  98711-3 0  9997
2 67312  43.0030  24.9944 0001162 266.5283  93.5436 15.27619456 28955
STARLINK-36445          
1 67313U 26002J   26185.59160123  .00028095  00000+0  10252-2 0  9994
2 67313  43.0011  25.4092 0000937 263.0288  97.0457 15.27623453 29114
STARLINK-36476          
1 67314U 26002K   26184.98128678  .00027573  00000+0  10071-2 0  9995
2 67314  43.0006  28.5612 0001542 262.1864  97.8813 15.27601252 28851
STARLINK-36463          
1 67315U 26002L   26185.61458993  .00043209  00000+0  15684-2 0  9992
2 67315  43.0041  24.7134 0001346 258.4558 101.6143 15.27623740 29024
STARLINK-36461          
1 67316U 26002M   26185.54534476  .00042643  00000+0  15488-2 0  9999
2 67316  43.0036  25.0530 0000834 271.0726  89.0030 15.27610856 29110
STARLINK-36450          
1 67317U 26002N   26185.59288424  .00052528  00000+0  19017-2 0  9999
2 67317  43.0034  25.4126 0001117 234.0681 126.0068 15.27632973 29115
STARLINK-36498          
1 67318U 26002P   26185.24797080  .00027489  00000+0  10041-2 0  9991
2 67318  42.9986  27.1250 0000779 275.1438  84.9325 15.27599602 28967
STARLINK-36470          
1 67319U 26002Q   26185.57875504  .00037131  00000+0  13506-2 0  9990
2 67319  43.0014  25.3129 0000782 222.0422 138.0370 15.27616500 29010
STARLINK-36500          
1 67320U 26002R   26185.59674377  .00062091  00000+0  22430-2 0  9998
2 67320  43.0007  25.4410 0001316 286.1463  73.9244 15.27638279 29012
STARLINK-36462          
1 67321U 26002S   26185.25824803  .00029744  00000+0  10854-2 0  9998
2 67321  42.9997  27.2030 0001481 273.1557  86.9126 15.27600825 28906
STARLINK-36434          
1 67322U 26002T   26185.58902984  .00022673  00000+0  83012-3 0  9993
2 67322  42.9995  25.3868 0000780 269.7327  90.3435 15.27610636 28958
STARLINK-36497          
1 67323U 26002U   26185.56718901  .00034807  00000+0  12667-2 0  9995
2 67323  43.0004  25.2151 0001584 268.7912  91.2758 15.27624595 29013
STARLINK-36471          
1 67324U 26002V   26184.96458258  .00023599  00000+0  86385-3 0  9990
2 67324  43.0031  28.4328 0001451 264.5393  95.5293 15.27599046 28860
STARLINK-36473          
1 67325U 26002W   26185.55691136  .00039134  00000+0  14227-2 0  9998
2 67325  43.0021  25.1379 0000738 245.2873 114.7902 15.27612940 29115
STARLINK-36430          
1 67326U 26002X   26185.53506147  .00054996  00000+0  19909-2 0  9999
2 67326  43.0030  24.9708 0001596 260.3629  99.7043 15.27618038 29111
STARLINK-36501          
1 67327U 26002Y   26185.60687808  .00047258  00000+0  17141-2 0  9991
2 67327  43.0024  24.6503 0001155 259.8825 100.1896 15.27614670 28960
STARLINK-36489          
1 67328U 26002Z   26185.25310466  .00028998  00000+0  10578-2 0  9993
2 67328  43.0008  27.1642 0001488 265.5792  94.4889 15.27620833 29068
STARLINK-36496          
1 67329U 26002AA  26184.97614706  .00019374  00000+0  71142-3 0  9999
2 67329  43.0001  28.5175 0001442 266.3625  93.7061 15.27593691 28842
STARLINK-36483          
1 67330U 26002AB  26185.33336806  .00024756  00000+0  90715-3 0  9991
2 67330  43.0014  26.7940 0001426 273.3234 133.3279 15.27542340  5880
STARLINK-36494          
1 67331U 26002AC  26185.63386040  .00035589  00000+0  12952-2 0  9992
2 67331  43.0006  24.8539 0001055 257.5803 102.4931 15.27614675 29125
STARLINK-36492          
1 67332U 26002AD  26185.59417189  .00062335  00000+0  22517-2 0  9994
2 67332  43.0021  25.4204 0002667 284.8529  75.2027 15.27635692 29111
STARLINK-36427          
1 67333U 26002AE  26184.98256971  .00014497  00000+0  53517-3 0  9998
2 67333  42.9999  28.5572 0001402 260.2217  99.8476 15.27587874 28920
STARLINK-35343          
1 67334U 26003A   26185.27558149  .00032988  00000+0  12019-2 0  9991
2 67334  43.0013 288.7071 0002468 287.1382  72.9199 15.27606774 26651
STARLINK-36486          
1 67335U 26003B   26185.31912107  .00022478  00000+0  82333-3 0  9995
2 67335  43.0030 288.1710 0002158 282.6070  77.4541 15.27600656 26660
STARLINK-36480          
1 67336U 26003C   26185.34867482  .00017298  00000+0  63625-3 0  9991
2 67336  43.0024 288.3968 0001837 267.2837  92.7804 15.27600571 26662
