OBJECT_NAME,OBJECT_ID,EPOCH,MEAN_MOTION,ECCENTRICITY,INCLINATION,RA_OF_ASC_NODE,ARG_OF_PERICENTER,MEAN_ANOMALY,EPHEMERIS_TYPE,CLASSIFICATION_TYPE,NORAD_CAT_ID,ELEMENT_SET_NO,REV_AT_EPOCH,BSTAR,MEAN_MOTION_DOT,MEAN_MOTION_DDOT
STARLINK-36481,2026-002C,2026-07-04T05:55:13.622016,15.27596488,.0000956,42.9988,27.1163,267.7307,92.3435,0,U,67307,999,2890,.13453609E-2,.36964E-3,0
STARLINK-36449,2026-002D,2026-07-04T13:34:54.243840,15.27620266,.000094,42.9989,25.2097,257.1021,102.9726,0,U,67308,999,2901,.13467614E-2,.3703E-3,0
STARLINK-36482,2026-002E,2026-07-03T23:21:56.831616,15.27608388,.00013787,43.0008,28.5042,267.4950,92.5744,0,U,67309,999,2886,.11613351E-2,.31861E-3,0
STARLINK-36491,2026-002F,2026-07-04T14:00:47.314080,15.27591755,.0001342,43.0001,25.3524,283.5804,76.4899,0,U,67310,999,2895,.62620214E-3,.17016E-3,0
STARLINK-36495,2026-002G,2026-07-04T14:48:42.099552,15.27625687,.00014614,43.0026,24.7325,241.2568,118.8137,0,U,67311,999,2912,.12911614E-2,.35489E-3,0
STARLINK-36485,2026-002H,2026-07-04T12:54:11.186208,15.27619456,.00011623,43.0030,24.9944,266.5283,93.5436,0,U,67312,999,2895,.98711102E-3,.27033E-3,0
STARLINK-36445,2026-002J,2026-07-04T14:11:54.346272,15.27623453,.00009379,43.0011,25.4092,263.0288,97.0457,0,U,67313,999,2911,.10252381E-2,.28095E-3,0
STARLINK-36476,2026-002K,2026-07-03T23:33:03.177792,15.27601252,.00015429,43.0006,28.5612,262.1864,97.8813,0,U,67314,999,2885,.10071095E-2,.27573E-3,0
STARLINK-36463,2026-002L,2026-07-04T14:45:00.569952,15.27623740,.00013465,43.0041,24.7134,258.4558,101.6143,0,U,67315,999,2902,.15684296E-2,.43209E-3,0
STARLINK-36461,2026-002M,2026-07-04T13:05:17.787264,15.27610856,.0000834,43.0036,25.0530,271.0726,89.0030,0,U,67316,999,2911,.15487611E-2,.42643E-3,0
STARLINK-36450,2026-002N,2026-07-04T14:13:45.198336,15.27632973,.00011175,43.0034,25.4126,234.0681,126.0068,0,U,67317,999,2911,.19017425E-2,.52528E-3,0
STARLINK-36498,2026-002P,2026-07-04T05:57:04.677120,15.27599602,.0000779,42.9986,27.1250,275.1438,84.9325,0,U,67318,999,2896,.10041327E-2,.27489E-3,0
STARLINK-36470,2026-002Q,2026-07-04T13:53:24.435456,15.27616500,.00007822,43.0014,25.3129,222.0422,138.0370,0,U,67319,999,2901,.13505708E-2,.37131E-3,0
STARLINK-36500,2026-002R,2026-07-04T14:19:18.661728,15.27638279,.00013169,43.0007,25.4410,286.1463,73.9244,0,U,67320,999,2901,.22429674E-2,.62091E-3,0
STARLINK-36462,2026-002S,2026-07-04T06:11:52.629792,15.27600825,.00014819,42.9997,27.2030,273.1557,86.9126,0,U,67321,999,2890,.10853571E-2,.29744E-3,0
STARLINK-36434,2026-002T,2026-07-04T14:08:12.178176,15.27610636,.00007804,42.9995,25.3868,269.7327,90.3435,0,U,67322,999,2895,.83012282E-3,.22673E-3,0
STARLINK-36497,2026-002U,2026-07-04T13:36:45.130464,15.27624595,.00015846,43.0004,25.2151,268.7912,91.2758,0,U,67323,999,2901,.12666953E-2,.34807E-3,0
STARLINK-36471,2026-002V,2026-07-03T23:08:59.934912,15.27599046,.00014512,43.0031,28.4328,264.5393,95.5293,0,U,67324,999,2886,.86384863E-3,.23599E-3,0
STARLINK-36473,2026-002W,2026-07-04T13:21:57.141504,15.27612940,.00007383,43.0021,25.1379,245.2873,114.7902,0,U,67325,999,2911,.14226802E-2,.39134E-3,0
STARLINK-36430,2026-002X,2026-07-04T12:50:29.311008,15.27618038,.00015962,43.0030,24.9708,260.3629,99.7043,0,U,67326,999,2911,.19908885E-2,.54996E-3,0
STARLINK-36501,2026-002Y,2026-07-04T14:33:54.266112,15.27614670,.00011553,43.0024,24.6503,259.8825,100.1896,0,U,67327,999,2896,.17140551E-2,.47258E-3,0
STARLINK-36489,2026-002Z,2026-07-04T06:04:28.242624,15.27620833,.00014881,43.0008,27.1642,265.5792,94.4889,0,U,67328,999,2906,.10578327E-2,.28998E-3,0
STARLINK-36496,2026-002AA,2026-07-03T23:25:39.105984,15.27593691,.00014424,43.0001,28.5175,266.3625,93.7061,0,U,67329,999,2884,.71141542E-3,.19374E-3,0
STARLINK-36483,2026-002AB,2026-07-04T08:00:03.000384,15.27542340,.00014266,43.0014,26.7940,273.3234,133.3279,0,U,67330,999,588,.90715041E-3,.24756E-3,0
STARLINK-36494,2026-002AC,2026-07-04T15:12:45.538560,15.27614675,.00010552,43.0006,24.8539,257.5803,102.4931,0,U,67331,999,2912,.12952177E-2,.35589E-3,0
STARLINK-36492,2026-002AD,2026-07-04T14:15:36.451296,15.27635692,.00026672,43.0021,25.4204,284.8529,75.2027,0,U,67332,999,2911,.22517267E-2,.62335E-3,0
STARLINK-36427,2026-002AE,2026-07-03T23:34:54.022944,15.27587874,.00014023,42.9999,28.5572,260.2217,99.8476,0,U,67333,999,2892,.53517148E-3,.14497E-3,0
STARLINK-35343,2026-003A,2026-07-04T06:36:50.240736,15.27606774,.00024683,43.0013,288.7071,287.1382,72.9199,0,U,67334,999,2665,.12018936E-2,.32988E-3,0
STARLINK-36486,2026-003B,2026-07-04T07:39:32.060448,15.27600656,.0002158,43.0030,288.1710,282.6070,77.4541,0,U,67335,999,2666,.82332605E-3,.22478E-3,0
STARLINK-36480,2026-003C,2026-07-04T08:22:05.504448,15.27600571,.00018379,43.0024,288.3968,267.2837,92.7804,0,U,67336,999,2666,.63625108E-3,.17298E-3,0
